SAUDISAT 1C (SO-50)     
1 27607U 02058C   26197.69007697  .00000351  00000+0  59565-4 0  9998
2 27607  64.5519  37.6997 0074486 256.9971 102.2811 14.83099959268832
SAUDISAT 2              
1 28371U 04025F   26197.83997663  .00000091  00000+0  31309-4 0  9997
2 28371  98.5521 198.5900 0024164 203.0178 156.9939 14.56698734170062
SAUDISAT 3              
1 31118U 07012B   26197.36348380  .00000094  00000+0  23299-4 0  9995
2 31118  98.1467 147.7857 0015658 131.2431 229.0127 14.71440619 32038
PISAT                   
1 41784U 16059B   26197.56946709  .00000433  00000+0  81287-4 0  9995
2 41784  97.8192 196.7617 0030481 110.6238 249.8241 14.69031064524056
FLYING LAPTOP           
1 42831U 17042G   26197.84631537  .00002188  00000+0  17382-3 0  9996
2 42831  97.4812 352.2646 0019640  27.2468 332.9783 15.01320334490907
SALSAT                  
1 46495U 20068K   26197.57597838  .00004037  00000+0  14101-3 0  9994
2 46495  97.8858 202.4396 0009353 187.8123 172.2972 15.30183636319853
