OBJECT_NAME,OBJECT_ID,EPOCH,MEAN_MOTION,ECCENTRICITY,INCLINATION,RA_OF_ASC_NODE,ARG_OF_PERICENTER,MEAN_ANOMALY,EPHEMERIS_TYPE,CLASSIFICATION_TYPE,NORAD_CAT_ID,ELEMENT_SET_NO,REV_AT_EPOCH,BSTAR,MEAN_MOTION_DOT,MEAN_MOTION_DDOT
SAUDISAT 1C (SO-50),2002-058C,2026-07-16T16:33:42.650208,14.83099959,.0074486,64.5519,37.6997,256.9971,102.2811,0,U,27607,999,26883,.59565E-4,.351E-5,0
SAUDISAT 2,2004-025F,2026-07-16T20:09:33.980832,14.56698734,.0024164,98.5521,198.5900,203.0178,156.9939,0,U,28371,999,17006,.31309E-4,.91E-6,0
SAUDISAT 3,2007-012B,2026-07-16T08:43:25.000320,14.71440619,.0015658,98.1467,147.7857,131.2431,229.0127,0,U,31118,999,3203,.23299E-4,.94E-6,0
PISAT,2016-059B,2026-07-16T13:40:01.956576,14.69031064,.0030481,97.8192,196.7617,110.6238,249.8241,0,U,41784,999,52405,.81287E-4,.433E-5,0
FLYING LAPTOP,2017-042G,2026-07-16T20:18:41.647968,15.01320334,.001964,97.4812,352.2646,27.2468,332.9783,0,U,42831,999,49090,.17382E-3,.2188E-4,0
SALSAT,2020-068K,2026-07-16T13:49:24.532032,15.30183636,.0009353,97.8858,202.4396,187.8123,172.2972,0,U,46495,999,31985,.14101E-3,.4037E-4,0
